NORAD_CAT_ID,OBJECT_NAME,OBJECT_TYPE,EPOCH,MEAN_MOTION,ECCENTRICITY,INCLINATION,RA_OF_ASC_NODE,ARG_OF_PERICENTER,MEAN_ANOMALY,BSTAR,MEAN_MOTION_DOT,MEAN_MOTION_DDOT,TLE_LINE0,TLE_LINE1,TLE_LINE2,SEMIMAJOR_AXIS,PERIOD,APOGEE,PERIGEE,DECAYED
52674.0,STARLINK-3936,PAYLOAD,2023-04-17 17:22:47,15.08867554,0.0001123,53.2163,219.0226,91.8676,268.2444,0.0019254,0.00030511,0.0,0 STARLINK-3936,1 52674U 22053U   23107.72415513  .00030511  00000-0  19254-2 0  9990,2 52674  53.2163 219.0226 0001123  91.8676 268.2444 15.08867554 51489,6917.796,95.436,540.438,538.884,0.0
52674.0,STARLINK-3936,PAYLOAD,2023-04-18 07:41:15,15.08837969,0.0001203,53.2164,216.3476,103.6124,256.5002,0.00087418,0.00013651,0.0,0 STARLINK-3936,1 52674U 22053U   23108.32032187  .00013651  00000-0  87418-3 0  9993,2 52674  53.2164 216.3476 0001203 103.6124 256.5002 15.08837969 51573,6917.887,95.438,540.584,538.919,0.0
52674.0,STARLINK-3936,PAYLOAD,2023-04-18 18:48:57,15.08865156,9.81e-05,53.2165,214.2646,99.4075,260.7028,0.0020389,0.00032333,0.0,0 STARLINK-3936,1 52674U 22053U   23108.78399837  .00032333  00000-0  20389-2 0  9992,2 52674  53.2165 214.2646 0000981  99.4075 260.7028 15.08865156 51203,6917.803,95.436,540.347,538.99,0.0
52674.0,STARLINK-3936,PAYLOAD,2023-04-19 07:32:03,15.08836106,0.0001038,53.2172,211.8873,82.6599,277.4511,0.00092637,0.00014484,0.0,0 STARLINK-3936,1 52674U 22053U   23109.31392752  .00014484  00000-0  92637-3 0  9994,2 52674  53.2172 211.8873 0001038  82.6599 277.4511 15.08836106 51288,6917.892,95.438,540.475,539.039,0.0
52674.0,STARLINK-3936,PAYLOAD,2023-04-19 17:04:22,15.08844983,0.0001146,53.217,210.1038,70.4857,289.6259,0.001786,0.00028254,0.0,0 STARLINK-3936,1 52674U 22053U   23109.71137064  .00028254  00000-0  17860-2 0  9995,2 52674  53.2170 210.1038 0001146  70.4857 289.6259 15.08844983 51784,6917.865,95.437,540.523,538.937,0.0
52674.0,STARLINK-3936,PAYLOAD,2023-04-20 08:58:13,15.08854725,0.000127,53.2159,207.128,70.483,289.6299,0.001257,0.00019782,0.0,0 STARLINK-3936,1 52674U 22053U   23110.37377007  .00019782  00000-0  12570-2 0  9991,2 52674  53.2159 207.1280 0001270  70.4830 289.6299 15.08854725 51885,6917.835,95.437,540.579,538.822,0.0
52674.0,STARLINK-3936,PAYLOAD,2023-04-20 15:19:46,15.08863119,0.0001297,53.2159,205.9396,65.4127,294.7,0.001379,0.00021741,0.0,0 STARLINK-3936,1 52674U 22053U   23110.63872735  .00021741  00000-0  13790-2 0  9991,2 52674  53.2159 205.9396 0001297  65.4127 294.7000 15.08863119 51481,6917.81,95.436,540.572,538.777,0.0
52674.0,STARLINK-3936,PAYLOAD,2023-04-20 23:16:41,15.08848451,0.0001246,53.2161,204.4533,76.0791,284.034,0.00091033,0.00014233,0.0,0 STARLINK-3936,1 52674U 22053U   23110.96992872  .00014233  00000-0  91033-3 0  9997,2 52674  53.2161 204.4533 0001246  76.0791 284.0340 15.08848451 51537,6917.855,95.437,540.582,538.858,0.0
52674.0,STARLINK-3936,PAYLOAD,2023-04-21 05:38:14,15.08848462,0.0001836,53.2163,203.2657,79.5564,280.5635,0.0008882,0.00013879,0.0,0 STARLINK-3936,1 52674U 22053U   23111.23489053  .00013879  00000-0  88820-3 0  9995,2 52674  53.2163 203.2657 0001836  79.5564 280.5635 15.08848462 52018,6917.855,95.437,540.99,538.449,0.0
52674.0,STARLINK-3936,PAYLOAD,2023-04-21 11:59:47,15.08843762,0.0001169,53.2156,202.075,78.206,281.9063,0.0013336,0.00021002,0.0,0 STARLINK-3936,1 52674U 22053U   23111.49985081  .00021002  00000-0  13336-2 0  9991,2 52674  53.2156 202.0750 0001169  78.2060 281.9063 15.08843762 51610,6917.869,95.437,540.543,538.925,0.0
52674.0,STARLINK-3936,PAYLOAD,2023-04-22 05:29:01,15.0885073,9.19e-05,53.2143,198.8026,87.05,273.0597,0.0011027,0.0001731,0.0,0 STARLINK-3936,1 52674U 22053U   23112.22848897  .00017310  00000-0  11027-2 0  9998,2 52674  53.2143 198.8026 0000919  87.0500 273.0597 15.08850730 52161,6917.848,95.437,540.348,539.077,0.0
52674.0,STARLINK-3936,PAYLOAD,2023-04-22 15:01:19,15.0886768,0.0001092,53.2142,197.0189,80.2444,279.8671,0.0018596,0.00029454,0.0,0 STARLINK-3936,1 52674U 22053U   23112.62592465  .00029454  00000-0  18596-2 0  9999,2 52674  53.2142 197.0189 0001092  80.2444 279.8671 15.08867680 52222,6917.796,95.436,540.416,538.905,0.0
52674.0,STARLINK-3936,PAYLOAD,2023-04-22 22:58:15,15.08849944,0.0001046,53.2142,195.533,83.2714,276.8397,0.00086974,0.00013585,0.0,0 STARLINK-3936,1 52674U 22053U   23112.95712672  .00013585  00000-0  86974-3 0  9993,2 52674  53.2142 195.5330 0001046  83.2714 276.8397 15.08849944 51836,6917.85,95.437,540.439,538.991,0.0
52674.0,STARLINK-3936,PAYLOAD,2023-04-23 14:52:07,15.0884086,8.74e-05,53.214,192.558,99.1207,260.9884,0.0018091,0.00028622,0.0,0 STARLINK-3936,1 52674U 22053U   23113.61953142  .00028622  00000-0  18091-2 0  9998,2 52674  53.2140 192.5580 0000874  99.1207 260.9884 15.08840860 51933,6917.878,95.438,540.347,539.138,0.0
52674.0,STARLINK-3936,PAYLOAD,2023-04-24 05:10:35,15.08894508,0.0001314,53.2152,189.8796,107.7671,252.3464,0.0042727,0.00068475,0.0,0 STARLINK-3936,1 52674U 22053U   23114.21568858  .00068475  00000-0  42727-2 0  9994,2 52674  53.2152 189.8796 0001314 107.7671 252.3464 15.08894508 52023,6917.714,95.434,540.488,538.67,0.0
52674.0,STARLINK-3936,PAYLOAD,2023-04-24 16:18:15,15.08944639,0.0001484,53.2153,187.7971,104.7878,255.3279,0.003814,0.00061114,0.0,0 STARLINK-3936,1 52674U 22053U   23114.67934543  .00061114  00000-0  38140-2 0  9999,2 52674  53.2153 187.7971 0001484 104.7878 255.3279 15.08944639 52095,6917.561,95.431,540.452,538.399,0.0
52674.0,STARLINK-3936,PAYLOAD,2023-04-25 11:22:53,15.08827092,0.0001179,53.2162,184.2332,89.036,271.0767,0.00052597,8.09e-05,0.0,0 STARLINK-3936,1 52674U 22053U   23115.47423540  .00008090  00000-0  52597-3 0  9995,2 52674  53.2162 184.2332 0001179  89.0360 271.0767 15.08827092 52214,6917.92,95.438,540.6,538.969,0.0
52674.0,STARLINK-3936,PAYLOAD,2023-04-26 09:38:19,15.08818793,0.0001684,53.216,180.0643,103.6007,256.5173,-0.00014177,-2.542e-05,0.0,0 STARLINK-3936,1 52674U 22053U   23116.40161000 -.00002542  00000-0 -14177-3 0  9999,2 52674  53.2160 180.0643 0001684 103.6007 256.5173 15.08818793 52793,6917.945,95.439,540.975,538.645,0.0
52674.0,STARLINK-3936,PAYLOAD,2023-04-26 20:46:01,15.08828741,0.0001255,53.2157,177.9871,71.6643,288.4485,0.00034188,5.156e-05,0.0,0 STARLINK-3936,1 52674U 22053U   23116.86529455  .00005156  00000-0  34188-3 0  9997,2 52674  53.2157 177.9871 0001255  71.6643 288.4485 15.08828741 52863,6917.915,95.438,540.648,538.912,0.0
52674.0,STARLINK-3936,PAYLOAD,2023-04-27 03:07:34,15.08834412,0.0001247,53.2158,176.7972,69.336,290.7766,0.0004487,6.859e-05,0.0,0 STARLINK-3936,1 52674U 22053U   23117.13025556  .00006859  00000-0  44870-3 0  9991,2 52674  53.2158 176.7972 0001247  69.3360 290.7766 15.08834412 52460,6917.897,95.438,540.625,538.9,0.0
52674.0,STARLINK-3936,PAYLOAD,2023-04-27 09:29:06,15.08847805,0.0001256,53.2151,175.6082,64.9958,295.1164,0.00085142,0.00013291,0.0,0 STARLINK-3936,1 52674U 22053U   23117.39521441  .00013291  00000-0  85142-3 0  9998,2 52674  53.2151 175.6082 0001256  64.9958 295.1164 15.08847805 52941,6917.857,95.437,540.59,538.853,0.0
52674.0,STARLINK-3936,PAYLOAD,2023-04-27 14:15:15,15.08855119,0.0001301,53.2154,174.7162,62.6392,297.4733,0.00092037,0.00014396,0.0,0 STARLINK-3936,1 52674U 22053U   23117.59393288  .00014396  00000-0  92037-3 0  9994,2 52674  53.2154 174.7162 0001301  62.6392 297.4733 15.08855119 52530,6917.834,95.437,540.599,538.799,0.0
52674.0,STARLINK-3936,PAYLOAD,2023-04-28 02:58:20,15.08851428,0.0001716,53.2173,172.3448,60.9253,299.1911,0.00041649,6.349e-05,0.0,0 STARLINK-3936,1 52674U 22053U   23118.12385212  .00006349  00000-0  41649-3 0  9994,2 52674  53.2173 172.3448 0001716  60.9253 299.1911 15.08851428 52614,6917.845,95.437,540.898,538.523,0.0
52674.0,STARLINK-3936,PAYLOAD,2023-04-28 10:55:16,15.08842799,0.0001318,53.2149,170.8511,64.3696,295.7432,0.00020238,2.935e-05,0.0,0 STARLINK-3936,1 52674U 22053U   23118.45505339  .00002935  00000-0  20238-3 0  9992,2 52674  53.2149 170.8511 0001318  64.3696 295.7432 15.08842799 52664,6917.872,95.437,540.649,538.825,0.0
52674.0,STARLINK-3936,PAYLOAD,2023-04-29 02:49:08,15.08837637,0.0001056,53.2152,167.8787,69.4976,290.6129,6.899e-05,8.1e-06,0.0,0 STARLINK-3936,1 52674U 22053U   23119.11745545  .00000810  00000-0  68990-4 0  9999,2 52674  53.2152 167.8787 0001056  69.4976 290.6129 15.08837637 52768,6917.888,95.438,540.483,539.022,0.0
52674.0,STARLINK-3936,PAYLOAD,2023-04-29 10:46:03,15.08837114,0.0001355,53.216,166.3918,75.4574,284.6568,-6.7915e-06,-3.96e-06,0.0,0 STARLINK-3936,1 52674U 22053U   23119.44865709 -.00000396  00000-0 -67915-5 0  9998,2 52674  53.2160 166.3918 0001355  75.4574 284.6568 15.08837114 53255,6917.889,95.438,540.692,538.817,0.0
52674.0,STARLINK-3936,PAYLOAD,2023-04-29 15:32:13,15.08832118,0.0001461,53.2162,165.4998,84.9363,275.1796,0.0001187,1.601e-05,0.0,0 STARLINK-3936,1 52674U 22053U   23119.64738059  .00001601  00000-0  11870-3 0  9992,2 52674  53.2162 165.4998 0001461  84.9363 275.1796 15.08832118 52845,6917.904,95.438,540.78,538.759,0.0
52674.0,STARLINK-3936,PAYLOAD,2023-04-30 12:12:13,15.08845267,0.0001408,53.2166,161.6334,74.5378,285.5769,9.266e-05,1.187e-05,0.0,0 STARLINK-3936,1 52674U 22053U   23120.50849349  .00001187  00000-0  92660-4 0  9990,2 52674  53.2166 161.6334 0001408  74.5378 285.5769 15.08845267 52971,6917.864,95.437,540.703,538.755,0.0
52674.0,STARLINK-3936,PAYLOAD,2023-05-01 12:03:01,15.0883801,0.0001235,53.2157,157.1688,96.4631,263.6501,3.741e-05,3.08e-06,0.0,0 STARLINK-3936,1 52674U 22053U   23121.50209926  .00000308  00000-0  37410-4 0  9998,2 52674  53.2157 157.1688 0001235  96.4631 263.6501 15.08838010 53123,6917.886,95.438,540.606,538.897,0.0
52674.0,STARLINK-3936,PAYLOAD,2023-05-02 08:43:01,15.08845506,0.0001369,53.2164,153.3043,103.817,256.2975,9.0718e-05,1.156e-05,0.0,0 STARLINK-3936,1 52674U 22053U   23122.36321292  .00001156  00000-0  90718-4 0  9996,2 52674  53.2164 153.3043 0001369 103.8170 256.2975 15.08845506 53696,6917.864,95.437,540.676,538.782,0.0
